IRIDIUM 135             
1 43070U 17083A   26166.96549979  .00000002  00000+0 -62518-5 0  9991
2 43070  86.3963 322.5261 0002161  91.2309 268.9135 14.34217563443973
IRIDIUM 138             
1 43071U 17083B   26166.92110122 -.00000025  00000+0 -16001-4 0  9993
2 43071  86.3973 322.2401 0002215  87.3565 272.7884 14.34217207443955
IRIDIUM 116             
1 43072U 17083C   26166.88938788  .00000034  00000+0  50232-5 0  9998
2 43072  86.3962 322.5440 0001944  98.1053 262.0364 14.34217875443989
IRIDIUM 130             
1 43073U 17083D   26166.92744258  .00000077  00000+0  20435-4 0  9999
2 43073  86.3970 322.8033 0001951  91.8834 268.2586 14.34218187443931
IRIDIUM 151             
1 43074U 17083E   26166.97184222  .00000016  00000+0 -14864-5 0  9998
2 43074  86.3964 322.5672 0002139  92.5037 267.6403 14.34217682443966
IRIDIUM 134             
1 43075U 17083F   26166.94012892 -.00000004  00000+0 -86531-5 0  9997
2 43075  86.3965 322.5885 0002088  90.9949 269.1486 14.34217644443923
IRIDIUM 137             
1 43076U 17083G   26166.88304554  .00000042  00000+0  79607-5 0  9996
2 43076  86.3967 322.7052 0002226 103.8871 256.2572 14.34217961443987
IRIDIUM 141             
1 43077U 17083H   26166.87670286  .00000034  00000+0  51139-5 0  9995
2 43077  86.3962 322.5385 0002203  90.8642 269.2806 14.34217952443980
IRIDIUM 153             
1 43078U 17083J   26166.89865103  .00000013  00000+0 -23121-5 0  9990
2 43078  86.3958 291.0095 0002257  89.7253 270.4202 14.34217601445097
IRIDIUM 131             
1 43079U 17083K   26166.86401575  .00000141  00000+0  43115-4 0  9992
2 43079  86.3968 322.7297 0002217  92.0861 268.0589 14.34219103443912
IRIDIUM 144             
1 43249U 18030A   26166.83522286  .00000087  00000+0  24000-4 0  9995
2 43249  86.3958 290.9653 0002106  96.4936 263.6500 14.34218493429942
IRIDIUM 149             
1 43250U 18030B   26166.84156783 -.00000034  00000+0 -19217-4 0  9991
2 43250  86.3953 290.9298 0002136  93.8313 266.3127 14.34217198429965
IRIDIUM 157             
1 43251U 18030C   26166.86059511  .00000004  00000+0 -58006-5 0  9991
2 43251  86.3955 290.9750 0002071  94.3015 265.8417 14.34217538429946
IRIDIUM 140             
1 43252U 18030D   26166.87962289  .00000007  00000+0 -44615-5 0  9992
2 43252  86.3955 290.9796 0002021  93.5439 266.5988 14.34217504430006
IRIDIUM 145             
1 43253U 18030E   26166.86693732  .00000038  00000+0  63887-5 0  9991
2 43253  86.3958 290.9570 0001958 100.5895 259.5521 14.34217560429930
IRIDIUM 146             
1 43254U 18030F   26166.84790920  .00000068  00000+0  17106-4 0  9992
2 43254  86.3958 290.9772 0002109  96.6517 263.4919 14.34218126429945
IRIDIUM 148             
1 43255U 18030G   26166.88596582  .00000046  00000+0  93476-5 0  9996
2 43255  86.3959 291.0043 0002246  96.4051 263.7400 14.34217787429987
IRIDIUM 142             
1 43256U 18030H   26166.85425235  .00000039  00000+0  69129-5 0  9990
2 43256  86.3955 290.9066 0002063  98.4716 261.6714 14.34217517429946
IRIDIUM 150             
1 43257U 18030J   26166.89230826  .00000015  00000+0 -18742-5 0  9995
2 43257  86.3958 291.0069 0002134  93.3689 266.7751 14.34217561429976
IRIDIUM 143             
1 43258U 18030K   26166.87328015  .00000070  00000+0  17787-4 0  9999
2 43258  86.3961 291.1074 0002060  96.0179 264.1251 14.34217472429901
IRIDIUM 161             
1 43478U 18047C   26166.78237718  .00000277  00000+0  76427-4 0  9995
2 43478  86.4481  89.0584 0002532  85.0235 275.1255 14.43282311424936
IRIDIUM 152             
1 43479U 18047D   26166.84599820  .00000088  00000+0  24289-4 0  9997
2 43479  86.3959  88.8931 0002330  83.0276 277.1185 14.34218191422294
IRIDIUM 147             
1 43480U 18047E   26166.85234122  .00000035  00000+0  54956-5 0  9998
2 43480  86.3960  88.8956 0002147  85.7649 274.3793 14.34217643422299
IRIDIUM 110             
1 43481U 18047F   26166.85868452  .00000116  00000+0  34450-4 0  9994
2 43481  86.3961  88.9845 0002585  83.5523 276.5967 14.34217174422287
IRIDIUM 162             
1 43482U 18047G   26166.84541712  .00000285  00000+0  78725-4 0  9991
2 43482  86.4481  88.9233 0002273  82.4728 277.6731 14.43281018424939
IRIDIUM 160             
1 43569U 18061A   26166.94405625  .00000093  00000+0  26185-4 0  9996
2 43569  86.3963  57.3173 0002277  85.7163 274.4293 14.34218189413198
IRIDIUM 166             
1 43570U 18061B   26166.76012125  .00000046  00000+0  92067-5 0  9998
2 43570  86.3963  57.3447 0002115  86.3717 273.7721 14.34217802413196
IRIDIUM 158             
1 43571U 18061C   26166.93771370  .00000074  00000+0  19261-4 0  9997
2 43571  86.3962  57.2804 0002188  82.1538 277.9906 14.34217931413180
IRIDIUM 165             
1 43572U 18061D   26166.75377774  .00000104  00000+0  30158-4 0  9990
2 43572  86.3964  57.4037 0002066  86.3542 273.7890 14.34217497413182
IRIDIUM 155             
1 43573U 18061E   26166.78549170  .00000034  00000+0  51725-5 0  9991
2 43573  86.3959  57.2594 0002112  82.3700 277.7736 14.34217642413159
