OBJECT_NAME,OBJECT_ID,EPOCH,MEAN_MOTION,ECCENTRICITY,INCLINATION,RA_OF_ASC_NODE,ARG_OF_PERICENTER,MEAN_ANOMALY,EPHEMERIS_TYPE,CLASSIFICATION_TYPE,NORAD_CAT_ID,ELEMENT_SET_NO,REV_AT_EPOCH,BSTAR,MEAN_MOTION_DOT,MEAN_MOTION_DDOT
IRIDIUM 135,2017-083A,2026-06-15T23:10:19.181856,14.34217563,.0002161,86.3963,322.5261,91.2309,268.9135,0,U,43070,999,44397,-.6251823E-5,.2E-7,0
IRIDIUM 138,2017-083B,2026-06-15T22:06:23.145408,14.34217207,.0002215,86.3973,322.2401,87.3565,272.7884,0,U,43071,999,44395,-.16000501E-4,-.25E-6,0
IRIDIUM 116,2017-083C,2026-06-15T21:20:43.112832,14.34217875,.00019444,86.3962,322.5440,98.1053,262.0364,0,U,43072,999,44398,.5023206E-5,.34E-6,0
IRIDIUM 130,2017-083D,2026-06-15T22:15:31.038912,14.34218187,.00019513,86.3970,322.8033,91.8834,268.2586,0,U,43073,999,44393,.20435349E-4,.77E-6,0
IRIDIUM 151,2017-083E,2026-06-15T23:19:27.167808,14.34217682,.00021394,86.3964,322.5672,92.5037,267.6403,0,U,43074,999,44396,-.148642E-5,.16E-6,0
IRIDIUM 134,2017-083F,2026-06-15T22:33:47.138688,14.34217644,.00020886,86.3965,322.5885,90.9949,269.1486,0,U,43075,999,44392,-.8653121E-5,-.4E-7,0
IRIDIUM 137,2017-083G,2026-06-15T21:11:35.134656,14.34217961,.0002226,86.3967,322.7052,103.8871,256.2572,0,U,43076,999,44398,.7960725E-5,.42E-6,0
IRIDIUM 141,2017-083H,2026-06-15T21:02:27.127104,14.34217952,.00022031,86.3962,322.5385,90.8642,269.2806,0,U,43077,999,44398,.5113877E-5,.34E-6,0
IRIDIUM 153,2017-083J,2026-06-15T21:34:03.448992,14.34217601,.00022573,86.3958,291.0095,89.7253,270.4202,0,U,43078,999,44509,-.2312136E-5,.13E-6,0
IRIDIUM 131,2017-083K,2026-06-15T20:44:10.960800,14.34219103,.00022171,86.3968,322.7297,92.0861,268.0589,0,U,43079,999,44391,.43115215E-4,.141E-5,0
IRIDIUM 144,2018-030A,2026-06-15T20:02:43.255104,14.34218493,.00021065,86.3958,290.9653,96.4936,263.6500,0,U,43249,999,42994,.24000395E-4,.87E-6,0
IRIDIUM 149,2018-030B,2026-06-15T20:11:51.460512,14.34217198,.00021367,86.3953,290.9298,93.8313,266.3127,0,U,43250,999,42996,-.19216974E-4,-.34E-6,0
IRIDIUM 157,2018-030C,2026-06-15T20:39:15.417504,14.34217538,.00020715,86.3955,290.9750,94.3015,265.8417,0,U,43251,999,42994,-.5800589E-5,.4E-7,0
IRIDIUM 140,2018-030D,2026-06-15T21:06:39.417696,14.34217504,.00020214,86.3955,290.9796,93.5439,266.5988,0,U,43252,999,43000,-.4461514E-5,.7E-7,0
IRIDIUM 145,2018-030E,2026-06-15T20:48:23.384448,14.34217560,.0001958,86.3958,290.9570,100.5895,259.5521,0,U,43253,999,42993,.638866E-5,.38E-6,0
IRIDIUM 146,2018-030F,2026-06-15T20:20:59.354880,14.34218126,.00021096,86.3958,290.9772,96.6517,263.4919,0,U,43254,999,42994,.17106065E-4,.68E-6,0
IRIDIUM 148,2018-030G,2026-06-15T21:15:47.446848,14.34217787,.00022468,86.3959,291.0043,96.4051,263.7400,0,U,43255,999,42998,.9347634E-5,.46E-6,0
IRIDIUM 142,2018-030H,2026-06-15T20:30:07.403040,14.34217517,.00020638,86.3955,290.9066,98.4716,261.6714,0,U,43256,999,42994,.6912876E-5,.39E-6,0
IRIDIUM 150,2018-030J,2026-06-15T21:24:55.433664,14.34217561,.00021346,86.3958,291.0069,93.3689,266.7751,0,U,43257,999,42997,-.1874243E-5,.15E-6,0
IRIDIUM 143,2018-030K,2026-06-15T20:57:31.404960,14.34217472,.00020604,86.3961,291.1074,96.0179,264.1251,0,U,43258,999,42990,.17787356E-4,.7E-6,0
IRIDIUM 161,2018-047C,2026-06-15T18:46:37.388352,14.43282311,.00025323,86.4481,89.0584,85.0235,275.1255,0,U,43478,999,42493,.76426764E-4,.277E-5,0
IRIDIUM 152,2018-047D,2026-06-15T20:18:14.244480,14.34218191,.00023301,86.3959,88.8931,83.0276,277.1185,0,U,43479,999,42229,.24289065E-4,.88E-6,0
IRIDIUM 147,2018-047E,2026-06-15T20:27:22.281408,14.34217643,.00021471,86.3960,88.8956,85.7649,274.3793,0,U,43480,999,42229,.5495585E-5,.35E-6,0
IRIDIUM 110,2018-047F,2026-06-15T20:36:30.342528,14.34217174,.00025857,86.3961,88.9845,83.5523,276.5967,0,U,43481,999,42228,.34449963E-4,.116E-5,0
IRIDIUM 162,2018-047G,2026-06-15T20:17:24.039168,14.43281018,.00022737,86.4481,88.9233,82.4728,277.6731,0,U,43482,999,42493,.78725291E-4,.285E-5,0
IRIDIUM 160,2018-061A,2026-06-15T22:39:26.460000,14.34218189,.00022773,86.3963,57.3173,85.7163,274.4293,0,U,43569,999,41319,.26184778E-4,.93E-6,0
IRIDIUM 166,2018-061B,2026-06-15T18:14:34.476000,14.34217802,.00021159,86.3963,57.3447,86.3717,273.7721,0,U,43570,999,41319,.9206658E-5,.46E-6,0
IRIDIUM 158,2018-061C,2026-06-15T22:30:18.463680,14.34217931,.00021887,86.3962,57.2804,82.1538,277.9906,0,U,43571,999,41318,.1926146E-4,.74E-6,0
IRIDIUM 165,2018-061D,2026-06-15T18:05:26.396736,14.34217497,.00020668,86.3964,57.4037,86.3542,273.7890,0,U,43572,999,41318,.30158406E-4,.104E-5,0
IRIDIUM 155,2018-061E,2026-06-15T18:51:06.482880,14.34217642,.00021121,86.3959,57.2594,82.3700,277.7736,0,U,43573,999,41315,.5172475E-5,.34E-6,0
